NORAD_CAT_ID,OBJECT_NAME,OBJECT_TYPE,EPOCH,MEAN_MOTION,ECCENTRICITY,INCLINATION,RA_OF_ASC_NODE,ARG_OF_PERICENTER,MEAN_ANOMALY,BSTAR,MEAN_MOTION_DOT,MEAN_MOTION_DDOT,TLE_LINE0,TLE_LINE1,TLE_LINE2,SEMIMAJOR_AXIS,PERIOD,APOGEE,PERIGEE,DECAYED
53919.0,STARLINK-5023,PAYLOAD,2022-12-20 22:00:01,15.16326157,0.0001351999999999,53.217,187.8221,120.1475,281.3816,-0.06356,-0.01148997,0.0,0 STARLINK-5023,1 53919U 22119AK  22354.91668981 -.01148997  00000-0 -63560-1 0  9998,2 53919  53.2170 187.8221 0001352 120.1475 281.3816 15.16326157 14053,6895.092,94.966,517.89,516.025,0.0
53919.0,STARLINK-5023,PAYLOAD,2022-12-21 14:00:01,15.14697094,0.0001453999999999,53.2177,184.7965,122.9992,317.6772,-0.066379,-0.01145694,0.0,0 STARLINK-5023,1 53919U 22119AK  22355.58334491 -.01145694  00000-0 -66379-1 0  9990,2 53919  53.2177 184.7965 0001454 122.9992 317.6772 15.14697094  1305,6900.035,95.069,522.904,520.8969999999998,0.0
53919.0,STARLINK-5023,PAYLOAD,2022-12-21 22:00:00,15.13889416,0.0001506,53.2167,183.2895,118.4629,340.3473,-0.068521,-0.0115509,0.0,0 STARLINK-5023,1 53919U 22119AK  22355.91667824 -.01155090  00000-0 -68521-1 0  9998,2 53919  53.2167 183.2895 0001506 118.4629 340.3473 15.13889416 14209,6902.489000000001,95.119,525.394,523.315,0.0
53919.0,STARLINK-5023,PAYLOAD,2022-12-22 14:00:01,15.12255767,0.0001419,53.2177,180.2751,104.8611,27.2949,-0.071108,-0.01145542,0.0,0 STARLINK-5023,1 53919U 22119AK  22356.58334491 -.01145542  00000-0 -71108-1 0  9999,2 53919  53.2177 180.2751 0001419 104.8611  27.2949 15.12255767  1302,6907.459,95.222,530.305,528.344,0.0
53919.0,STARLINK-5023,PAYLOAD,2022-12-22 22:00:00,15.11440885,0.0001419,53.2176,178.7734,100.6882,46.6715,-0.072644,-0.01144019,0.0,0 STARLINK-5023,1 53919U 22119AK  22356.91667824 -.01144019  00000-0 -72644-1 0  9999,2 53919  53.2176 178.7734 0001419 100.6882  46.6715 15.11440885 14359,6909.941999999999,95.273,532.7869999999998,530.826,0.0
53919.0,STARLINK-5023,PAYLOAD,2022-12-23 00:00:00,15.11237056,0.0001433,53.2173,178.3978,107.0835,133.9243,-0.072948,-0.01142424,0.0,0 STARLINK-5023,1 53919U 22119AK  22357.00001157 -.01142424  00000-0 -72948-1 0  9996,2 53919  53.2173 178.3978 0001433 107.0835 133.9243 15.11237056  1308,6910.563,95.286,533.419,531.438,0.0
53919.0,STARLINK-5023,PAYLOAD,2022-12-23 14:00:01,15.09743947,0.0001431,53.2161,175.7709,117.1908,57.6478,-0.060718,-0.00916554,0.0,0 STARLINK-5023,1 53919U 22119AK  22357.58334491 -.00916554  00000-0 -60718-1 0  9993,2 53919  53.2161 175.7709 0001431 117.1908  57.6478 15.09743947  1309,6915.119000000002,95.38,537.9730000000002,535.994,0.0
53919.0,STARLINK-5023,PAYLOAD,2022-12-23 22:00:01,15.08980461,0.0001508,53.2163,174.275,120.063,67.1258,-0.014139,-0.00219375,0.0,0 STARLINK-5023,1 53919U 22119AK  22357.91668981 -.00219375  00000-0 -14139-1 0  9997,2 53919  53.2163 174.2750 0001508 120.0630  67.1258 15.08980461 14502,6917.451,95.429,540.359,538.273,0.0
53919.0,STARLINK-5023,PAYLOAD,2022-12-24 06:00:00,15.08858433,0.0001576999999999,53.2103,172.7773,113.229,85.5706,-0.0017687,-0.00028341,0.0,0 STARLINK-5023,1 53919U 22119AK  22358.25001157 -.00028341  00000-0 -17687-2 0  9994,2 53919  53.2103 172.7773 0001577 113.2290  85.5706 15.08858433 14556,6917.824000000001,95.436,540.78,538.5980000000002,0.0
53919.0,STARLINK-5023,PAYLOAD,2022-12-24 14:00:01,15.08852992,0.000157,53.2118,171.28099999999995,115.2084,95.1829,-0.001639,-0.00026287,0.0,0 STARLINK-5023,1 53919U 22119AK  22358.58334491 -.00026287  00000-0 -16390-2 0  9997,2 53919  53.2118 171.2810 0001570 115.2084  95.1829 15.08852992  1300,6917.840999999999,95.437,540.7919999999998,538.62,0.0
53919.0,STARLINK-5023,PAYLOAD,2022-12-24 22:00:00,15.08804526,0.0001283,53.2129,169.7858,107.5461,114.4577,-0.0016262,-0.0002605,0.0,0 STARLINK-5023,1 53919U 22119AK  22358.91667824 -.00026050  00000-0 -16262-2 0  9999,2 53919  53.2129 169.7858 0001283 107.5461 114.4577 15.08804526  1305,6917.989000000001,95.44,540.741,538.966,0.0
53919.0,STARLINK-5023,PAYLOAD,2022-12-25 14:00:01,15.08804681,0.000144,53.2134,166.7918,113.3351,131.7319,0.0034099,0.00054347,0.0,0 STARLINK-5023,1 53919U 22119AK  22359.58334491  .00054347  00000-0  34099-2 0  9990,2 53919  53.2134 166.7918 0001440 113.3351 131.7319 15.08804681 14754,6917.988,95.44,540.85,538.857,0.0
53919.0,STARLINK-5023,PAYLOAD,2022-12-26 00:00:00,15.08852104,0.0001375999999999,53.2134,164.9223,103.7598,245.7815,0.00058909,9.103e-05,0.0,0 STARLINK-5023,1 53919U 22119AK  22360.00001157  .00009103  00000-0  58909-3 0  9996,2 53919  53.2134 164.9223 0001376 103.7598 245.7815 15.08852104  1304,6917.843000000003,95.437,540.66,538.756,0.0
53919.0,STARLINK-5023,PAYLOAD,2022-12-26 06:00:00,15.0884693,0.0001424,53.214,163.7985,111.3169,156.9412,0.0013181,0.00020756,0.0,0 STARLINK-5023,1 53919U 22119AK  22360.25001157  .00020756  00000-0  13181-2 0  9992,2 53919  53.2140 163.7985 0001424 111.3169 156.9412 15.08846930 14856,6917.859,95.437,540.7090000000002,538.739,0.0
53919.0,STARLINK-5023,PAYLOAD,2022-12-26 14:00:01,15.08877694,0.0001466,53.2142,162.3025,110.7139,169.1504,-0.0013837,-0.00022265,0.0,0 STARLINK-5023,1 53919U 22119AK  22360.58334491 -.00022265  00000-0 -13837-2 0  9995,2 53919  53.2142 162.3025 0001466 110.7139 169.1504 15.08877694  1309,6917.765,95.435,540.644,538.616,0.0
53919.0,STARLINK-5023,PAYLOAD,2022-12-27 00:00:00,15.088645800000002,0.0001256,53.2142,160.4328,103.0517,281.3528,-0.0011925,-0.00019229,0.0,0 STARLINK-5023,1 53919U 22119AK  22361.00001157 -.00019229  00000-0 -11925-2 0  9995,2 53919  53.2142 160.4328 0001256 103.0517 281.3528 15.08864580  1309,6917.805,95.436,540.539,538.8009999999998,0.0
53919.0,STARLINK-5023,PAYLOAD,2022-12-27 11:01:16,15.08835595,0.0001421,53.215,158.3704,114.7413,245.3728,0.00023302,3.422e-05,0.0,0 STARLINK-5023,1 53919U 22119AK  22361.45921472  .00003422  00000-0  23302-3 0  9994,2 53919  53.2150 158.3704 0001421 114.7413 245.3728 15.08835595 15468,6917.894,95.438,540.742,538.776,0.0
53919.0,STARLINK-5023,PAYLOAD,2022-12-27 17:22:48,15.08836699,0.000135,53.2148,157.1811,112.2208,247.8928,0.00025536,3.778e-05,0.0,0 STARLINK-5023,1 53919U 22119AK  22361.72417322  .00003778  00000-0  25536-3 0  9993,2 53919  53.2148 157.1811 0001350 112.2208 247.8928 15.08836699 15507,6917.89,95.438,540.689,538.822,0.0
53919.0,STARLINK-5023,PAYLOAD,2022-12-27 20:33:34,15.08842593,0.0001036999999999,53.2149,156.5864,103.5559,256.5549,0.00018984,2.735e-05,0.0,0 STARLINK-5023,1 53919U 22119AK  22361.85665160  .00002735  00000-0  18984-3 0  9993,2 53919  53.2149 156.5864 0001037 103.5559 256.5549 15.08842593 15105,6917.871999999999,95.437,540.455,539.02,0.0
53919.0,STARLINK-5023,PAYLOAD,2022-12-28 10:52:03,15.08848632,0.0001404,53.2147,153.9094,108.3052,251.8093,-7.165e-05,-1.428e-05,0.0,0 STARLINK-5023,1 53919U 22119AK  22362.45281399 -.00001428  00000-0 -71650-4 0  9998,2 53919  53.2147 153.9094 0001404 108.3052 251.8093 15.08848632 15616,6917.854,95.437,540.69,538.748,0.0
53919.0,STARLINK-5023,PAYLOAD,2022-12-29 10:42:51,15.08825776,0.0001248,53.2155,149.4488,111.5168,248.5957,-0.00016319,-2.883e-05,0.0,0 STARLINK-5023,1 53919U 22119AK  22363.44642916 -.00002883  00000-0 -16319-3 0  9990,2 53919  53.2155 149.4488 0001248 111.5168 248.5957 15.08825776 15348,6917.924,95.438,540.6519999999998,538.9259999999998,0.0
53919.0,STARLINK-5023,PAYLOAD,2022-12-29 17:04:23,15.08831301,0.0001536,53.2169,148.2611,114.9349,245.1803,-0.00016432,-2.902e-05,0.0,0 STARLINK-5023,1 53919U 22119AK  22363.71138757 -.00002902  00000-0 -16432-3 0  9991,2 53919  53.2169 148.2611 0001536 114.9349 245.1803 15.08831301 15384,6917.906999999997,95.438,540.835,538.7090000000002,0.0
53919.0,STARLINK-5023,PAYLOAD,2022-12-30 16:55:10,15.08836892,0.0001205999999999,53.2154,143.7991,108.3688,251.7435,0.00012253,1.663e-05,0.0,0 STARLINK-5023,1 53919U 22119AK  22364.70497785  .00001663  00000-0  12253-3 0  9998,2 53919  53.2154 143.7991 0001206 108.3688 251.7435 15.08836892 15537,6917.89,95.438,540.589,538.9209999999998,0.0
53919.0,STARLINK-5023,PAYLOAD,2022-12-31 02:27:28,15.08850327,0.0001189,53.2156,142.0147,104.806,255.3064,0.00016492,2.339e-05,0.0,0 STARLINK-5023,1 53919U 22119AK  22365.10240780  .00002339  00000-0  16492-3 0  9994,2 53919  53.2156 142.0147 0001189 104.8060 255.3064 15.08850327 15592,6917.849,95.437,540.536,538.891,0.0
53919.0,STARLINK-5023,PAYLOAD,2022-12-31 08:49:00,15.08845126,0.000112,53.2154,140.8253,106.919,253.1925,0.00025229,3.73e-05,0.0,0 STARLINK-5023,1 53919U 22119AK  22365.36736634  .00003730  00000-0  25229-3 0  9994,2 53919  53.2154 140.8253 0001120 106.9190 253.1925 15.08845126 16051,6917.865,95.437,540.505,538.955,0.0
53919.0,STARLINK-5023,PAYLOAD,2022-12-31 16:45:56,15.08846744,0.0001153,53.2158,139.338,104.7314,255.3806,0.00018426,2.646e-05,0.0,0 STARLINK-5023,1 53919U 22119AK  22365.69856707  .00002646  00000-0  18426-3 0  9990,2 53919  53.2158 139.3380 0001153 104.7314 255.3806 15.08846744 16104,6917.86,95.437,540.5219999999998,538.927,0.0
53919.0,STARLINK-5023,PAYLOAD,2023-01-01 02:18:15,15.08838139,0.0001208,53.2158,137.5543,100.8601,259.2527,6.1067e-05,6.84e-06,0.0,0 STARLINK-5023,1 53919U 22119AK  23001.09601634  .00000684  00000-0  61067-4 0  9999,2 53919  53.2158 137.5543 0001208 100.8601 259.2527 15.08838139 15743,6917.886,95.438,540.587,538.915,0.0
53919.0,STARLINK-5023,PAYLOAD,2023-01-01 15:01:21,15.08841924,0.0001603,53.216,135.1764,89.6183,270.4993,-6.1904e-05,-1.273e-05,0.0,0 STARLINK-5023,1 53919U 22119AK  23001.62593996 -.00001273  00000-0 -61904-4 0  9996,2 53919  53.2160 135.1764 0001603  89.6183 270.4993 15.08841924 16247,6917.875,95.437,540.8480000000002,538.631,0.0
53919.0,STARLINK-5023,PAYLOAD,2023-01-02 02:09:03,15.08831593,0.0001157,53.2165,133.0965,100.2064,259.9059,-0.00013444,-2.426e-05,0.0,0 STARLINK-5023,1 53919U 22119AK  23002.08962926 -.00002426  00000-0 -13444-3 0  9996,2 53919  53.2165 133.0965 0001157 100.2064 259.9059 15.08831593 15890,6917.906,95.438,540.571,538.971,0.0
